{"type": "Feature", "properties": {"place_id": 276609095, "osm_type": "relation", "osm_id": 6427492, "place_rank": 16, "category": "boundary", "type": "administrative", "importance": 0.4254631360549998, "addresstype": "village", "name": "Marvila", "display_name": "Marvila, Lisboa, Portugal"}, "bbox": [-9.1303904, 38.7336705, -9.0931635, 38.7630136], "geometry": {"type": "Polygon", "coordinates": [[[-9.1303904, 38.7493732], [-9.1299218, 38.7493652], [-9.1297363, 38.7492715], [-9.1296284, 38.7491125], [-9.1296395, 38.748965], [-9.1297314, 38.7488155], [-9.1300689, 38.7487146], [-9.1301004, 38.7486352], [-9.1299529, 38.7486242], [-9.1290604, 38.747893], [-9.1276718, 38.7460841], [-9.1270568, 38.7454798], [-9.1261673, 38.7448781], [-9.1252586, 38.7443467], [-9.1245226, 38.7439807], [-9.1243314, 38.7438856], [-9.1240858, 38.7437635], [-9.1236428, 38.7436689], [-9.1226641, 38.7431993], [-9.1215559, 38.7424729], [-9.1211329, 38.7420905], [-9.1207922, 38.7417286], [-9.1201041, 38.7411708], [-9.1193163, 38.7404649], [-9.1177839, 38.7390181], [-9.117655, 38.738757], [-9.1174898, 38.7381063], [-9.1164492, 38.7376295], [-9.1159133, 38.737447], [-9.115861, 38.7370919], [-9.1153459, 38.7366819], [-9.1152438, 38.7367819], [-9.1151243, 38.7367883], [-9.1146798, 38.7366632], [-9.1142399, 38.7366282], [-9.1139416, 38.7365109], [-9.1135505, 38.7359196], [-9.11348, 38.7356419], [-9.1133684, 38.7355491], [-9.112923, 38.7355152], [-9.1116528, 38.7351461], [-9.1094049, 38.7342574], [-9.1087534, 38.7347867], [-9.1085701, 38.7346827], [-9.1077574, 38.7342212], [-9.1062307, 38.7374877], [-9.105506, 38.7366631], [-9.10402, 38.7362998], [-9.1041871, 38.7358682], [-9.1036026, 38.7357633], [-9.1039584, 38.734445], [-9.1035258, 38.7342983], [-9.1035125, 38.7340684], [-9.1026591, 38.7336705], [-9.1023939, 38.7341545], [-9.1022274, 38.7344582], [-9.1018868, 38.7350798], [-9.1015291, 38.7357325], [-9.1009398, 38.7368078], [-9.1001872, 38.738129], [-9.0999313, 38.7386066], [-9.0997166, 38.7389987], [-9.0976884, 38.7422864], [-9.097701, 38.7422909], [-9.0977646, 38.7423134], [-9.0977567, 38.7423256], [-9.0976925, 38.7424249], [-9.0976257, 38.742547], [-9.0975192, 38.7427881], [-9.0974449, 38.7430066], [-9.0974227, 38.743074], [-9.0973632, 38.7432971], [-9.0973087, 38.7434967], [-9.0972066, 38.7438703], [-9.0971061, 38.7442378], [-9.0971031, 38.7442487], [-9.097045, 38.7442387], [-9.0970175, 38.7442343], [-9.0969935, 38.7443216], [-9.0970252, 38.7443273], [-9.0970782, 38.7443363], [-9.096994, 38.7446426], [-9.0968037, 38.7453352], [-9.0967742, 38.74533], [-9.0957421, 38.7451539], [-9.0957578, 38.7451042], [-9.0957117, 38.7450953], [-9.0956624, 38.7452516], [-9.0957085, 38.7452604], [-9.0957231, 38.745214], [-9.0967869, 38.7453971], [-9.0965402, 38.7462866], [-9.0964893, 38.7464718], [-9.0964596, 38.7465801], [-9.096312, 38.7471101], [-9.095477, 38.7501587], [-9.0945472, 38.7500026], [-9.0945188, 38.749969], [-9.0946973, 38.7493411], [-9.0945256, 38.7493117], [-9.094325, 38.7500455], [-9.093695, 38.7499397], [-9.0937025, 38.7499108], [-9.0933719, 38.7498846], [-9.0933933, 38.7498075], [-9.0932228, 38.7497802], [-9.0931635, 38.7500013], [-9.0933336, 38.7500294], [-9.0933585, 38.749934], [-9.0954428, 38.7502583], [-9.0946314, 38.7532396], [-9.1030967, 38.755744], [-9.1050205, 38.756343], [-9.1247556, 38.7622766], [-9.1264192, 38.7627063], [-9.1285741, 38.7630136], [-9.1286135, 38.7626197], [-9.1285295, 38.762539], [-9.1285544, 38.7624682], [-9.1286404, 38.7624704], [-9.1289131, 38.7622814], [-9.1290448, 38.7622666], [-9.129247, 38.7621518], [-9.1290429, 38.7615956], [-9.1290775, 38.7612834], [-9.1290999, 38.7610665], [-9.1291231, 38.7608365], [-9.1291466, 38.7605979], [-9.1289363, 38.7605869], [-9.1290121, 38.7598319], [-9.1290878, 38.7598374], [-9.1291921, 38.7587613], [-9.1293324, 38.7587697], [-9.1293596, 38.7584723], [-9.1293784, 38.7583203], [-9.1294827, 38.7572073], [-9.1295072, 38.7569844], [-9.1295303, 38.7567499], [-9.1295574, 38.7565274], [-9.1296367, 38.7556247], [-9.1297131, 38.7554157], [-9.1298315, 38.7542082], [-9.1298903, 38.7542019], [-9.129903, 38.7540941], [-9.1298465, 38.7540412], [-9.1300882, 38.7513943], [-9.1296745, 38.7514104], [-9.1293734, 38.7512199], [-9.1290434, 38.7507577], [-9.129064, 38.7501715], [-9.1290066, 38.750092], [-9.1290042, 38.7499362], [-9.1288298, 38.7498375], [-9.1287117, 38.7498216], [-9.1287365, 38.7496907], [-9.128805, 38.7496387], [-9.1287101, 38.7495995], [-9.1287438, 38.749456], [-9.1288427, 38.7494276], [-9.1288142, 38.7493611], [-9.1289437, 38.7493209], [-9.1289823, 38.7493902], [-9.1291942, 38.7493766], [-9.1293229, 38.7494746], [-9.1297974, 38.7496285], [-9.1301097, 38.7496574], [-9.1303904, 38.7493732]]]}}